CCSDS_OMM_VERS = 2.0
CREATION_DATE  = 
ORIGINATOR     = 

OBJECT_NAME    = STARLINK-36994
OBJECT_ID      = 2026-039M
CENTER_NAME    = EARTH
REF_FRAME      = TEME
TIME_SYSTEM    = UTC
MEAN_ELEMENT_THEORY = SGP/SGP4

EPOCH          = 2026-03-26T07:54:32.725152
MEAN_MOTION    = 15.50620562
ECCENTRICITY   = .000365
INCLINATION    = 42.9961
RA_OF_ASC_NODE = 315.3582
ARG_OF_PERICENTER = 272.5106
MEAN_ANOMALY   = 87.5336

EPHEMERIS_TYPE = 0
CLASSIFICATION_TYPE = U
NORAD_CAT_ID   = 67997
ELEMENT_SET_NO = 999
REV_AT_EPOCH   = 424
BSTAR          = .11585E-2
MEAN_MOTION_DOT = .6833E-3
MEAN_MOTION_DDOT = 0

CCSDS_OMM_VERS = 2.0
CREATION_DATE  = 
ORIGINATOR     = 

OBJECT_NAME    = STARLINK-36988
OBJECT_ID      = 2026-039N
CENTER_NAME    = EARTH
REF_FRAME      = TEME
TIME_SYSTEM    = UTC
MEAN_ELEMENT_THEORY = SGP/SGP4

EPOCH          = 2026-03-26T07:48:26.010720
MEAN_MOTION    = 15.50604528
ECCENTRICITY   = .0001835
INCLINATION    = 42.9963
RA_OF_ASC_NODE = 315.3253
ARG_OF_PERICENTER = 283.8729
MEAN_ANOMALY   = 76.1926

EPHEMERIS_TYPE = 0
CLASSIFICATION_TYPE = U
NORAD_CAT_ID   = 67998
ELEMENT_SET_NO = 999
REV_AT_EPOCH   = 424
BSTAR          = .10032E-2
MEAN_MOTION_DOT = .5901E-3
MEAN_MOTION_DDOT = 0

CCSDS_OMM_VERS = 2.0
CREATION_DATE  = 
ORIGINATOR     = 

OBJECT_NAME    = STARLINK-36926
OBJECT_ID      = 2026-039P
CENTER_NAME    = EARTH
REF_FRAME      = TEME
TIME_SYSTEM    = UTC
MEAN_ELEMENT_THEORY = SGP/SGP4

EPOCH          = 2026-03-26T15:35:56.359104
MEAN_MOTION    = 15.50619662
ECCENTRICITY   = .0001606
INCLINATION    = 42.9996
RA_OF_ASC_NODE = 313.4621
ARG_OF_PERICENTER = 266.3478
MEAN_ANOMALY   = 93.7199

EPHEMERIS_TYPE = 0
CLASSIFICATION_TYPE = U
NORAD_CAT_ID   = 67999
ELEMENT_SET_NO = 999
REV_AT_EPOCH   = 429
BSTAR          = .11167E-2
MEAN_MOTION_DOT = .65817E-3
MEAN_MOTION_DDOT = 0

CCSDS_OMM_VERS = 2.0
CREATION_DATE  = 
ORIGINATOR     = 

OBJECT_NAME    = STARLINK-36931
OBJECT_ID      = 2026-039Q
CENTER_NAME    = EARTH
REF_FRAME      = TEME
TIME_SYSTEM    = UTC
MEAN_ELEMENT_THEORY = SGP/SGP4

EPOCH          = 2026-03-26T20:00:03.000384
MEAN_MOTION    = 15.47572768
ECCENTRICITY   = .0001778
INCLINATION    = 43.0002
RA_OF_ASC_NODE = 312.1204
ARG_OF_PERICENTER = 267.1202
MEAN_ANOMALY   = 148.0910

EPHEMERIS_TYPE = 0
CLASSIFICATION_TYPE = U
NORAD_CAT_ID   = 68000
ELEMENT_SET_NO = 999
REV_AT_EPOCH   = 563
BSTAR          = -.4085E-1
MEAN_MOTION_DOT = -.1931945E-1
MEAN_MOTION_DDOT = 0

CCSDS_OMM_VERS = 2.0
CREATION_DATE  = 
ORIGINATOR     = 

OBJECT_NAME    = STARLINK-36903
OBJECT_ID      = 2026-039R
CENTER_NAME    = EARTH
REF_FRAME      = TEME
TIME_SYSTEM    = UTC
MEAN_ELEMENT_THEORY = SGP/SGP4

EPOCH          = 2026-03-26T20:00:03.000384
MEAN_MOTION    = 15.34770632
ECCENTRICITY   = .0001007
INCLINATION    = 42.9997
RA_OF_ASC_NODE = 312.6402
ARG_OF_PERICENTER = 278.1142
MEAN_ANOMALY   = 285.0622

EPHEMERIS_TYPE = 0
CLASSIFICATION_TYPE = U
NORAD_CAT_ID   = 68001
ELEMENT_SET_NO = 999
REV_AT_EPOCH   = 563
BSTAR          = -.60029E-1
MEAN_MOTION_DOT = -.1854239E-1
MEAN_MOTION_DDOT = 0

CCSDS_OMM_VERS = 2.0
CREATION_DATE  = 
ORIGINATOR     = 

OBJECT_NAME    = STARLINK-36898
OBJECT_ID      = 2026-039S
CENTER_NAME    = EARTH
REF_FRAME      = TEME
TIME_SYSTEM    = UTC
MEAN_ELEMENT_THEORY = SGP/SGP4

EPOCH          = 2026-03-26T20:00:03.000384
MEAN_MOTION    = 15.33276017
ECCENTRICITY   = .0001109
INCLINATION    = 42.9988
RA_OF_ASC_NODE = 312.4657
ARG_OF_PERICENTER = 252.1763
MEAN_ANOMALY   = 20.8241

EPHEMERIS_TYPE = 0
CLASSIFICATION_TYPE = U
NORAD_CAT_ID   = 68002
ELEMENT_SET_NO = 999
REV_AT_EPOCH   = 563
BSTAR          = -.62945E-1
MEAN_MOTION_DOT = -.1853509E-1
MEAN_MOTION_DDOT = 0

CCSDS_OMM_VERS = 2.0
CREATION_DATE  = 
ORIGINATOR     = 

OBJECT_NAME    = STARLINK-36862
OBJECT_ID      = 2026-039T
CENTER_NAME    = EARTH
REF_FRAME      = TEME
TIME_SYSTEM    = UTC
MEAN_ELEMENT_THEORY = SGP/SGP4

EPOCH          = 2026-03-26T20:00:03.000384
MEAN_MOTION    = 15.31822535
ECCENTRICITY   = .0001204
INCLINATION    = 42.9992
RA_OF_ASC_NODE = 312.6400
ARG_OF_PERICENTER = 275.0680
MEAN_ANOMALY   = 287.0814

EPHEMERIS_TYPE = 0
CLASSIFICATION_TYPE = U
NORAD_CAT_ID   = 68003
ELEMENT_SET_NO = 999
REV_AT_EPOCH   = 563
BSTAR          = -.61346E-1
MEAN_MOTION_DOT = -.1737379E-1
MEAN_MOTION_DDOT = 0

CCSDS_OMM_VERS = 2.0
CREATION_DATE  = 
ORIGINATOR     = 

OBJECT_NAME    = STARLINK-36888
OBJECT_ID      = 2026-039U
CENTER_NAME    = EARTH
REF_FRAME      = TEME
TIME_SYSTEM    = UTC
MEAN_ELEMENT_THEORY = SGP/SGP4

EPOCH          = 2026-03-26T20:00:03.000384
MEAN_MOTION    = 15.32746456
ECCENTRICITY   = .0001045
INCLINATION    = 42.9997
RA_OF_ASC_NODE = 312.6600
ARG_OF_PERICENTER = 278.9187
MEAN_ANOMALY   = 275.3378

EPHEMERIS_TYPE = 0
CLASSIFICATION_TYPE = U
NORAD_CAT_ID   = 68004
ELEMENT_SET_NO = 999
REV_AT_EPOCH   = 563
BSTAR          = -.64014E-1
MEAN_MOTION_DOT = -.1853471E-1
MEAN_MOTION_DDOT = 0

CCSDS_OMM_VERS = 2.0
CREATION_DATE  = 
ORIGINATOR     = 

OBJECT_NAME    = STARLINK-36910
OBJECT_ID      = 2026-039V
CENTER_NAME    = EARTH
REF_FRAME      = TEME
TIME_SYSTEM    = UTC
MEAN_ELEMENT_THEORY = SGP/SGP4

EPOCH          = 2026-03-26T20:00:03.000384
MEAN_MOTION    = 15.32669478
ECCENTRICITY   = .0001242
INCLINATION    = 42.9993
RA_OF_ASC_NODE = 312.3985
ARG_OF_PERICENTER = 250.2329
MEAN_ANOMALY   = 49.7027

EPHEMERIS_TYPE = 0
CLASSIFICATION_TYPE = U
NORAD_CAT_ID   = 68005
ELEMENT_SET_NO = 999
REV_AT_EPOCH   = 563
BSTAR          = -.64372E-1
MEAN_MOTION_DOT = -.185877E-1
MEAN_MOTION_DDOT = 0

CCSDS_OMM_VERS = 2.0
CREATION_DATE  = 
ORIGINATOR     = 

OBJECT_NAME    = STARLINK-36889
OBJECT_ID      = 2026-039W
CENTER_NAME    = EARTH
REF_FRAME      = TEME
TIME_SYSTEM    = UTC
MEAN_ELEMENT_THEORY = SGP/SGP4

EPOCH          = 2026-03-26T20:00:03.000384
MEAN_MOTION    = 15.42272454
ECCENTRICITY   = .0001164
INCLINATION    = 42.9998
RA_OF_ASC_NODE = 312.4669
ARG_OF_PERICENTER = 250.1496
MEAN_ANOMALY   = 24.0680

EPHEMERIS_TYPE = 0
CLASSIFICATION_TYPE = U
NORAD_CAT_ID   = 68006
ELEMENT_SET_NO = 999
REV_AT_EPOCH   = 563
BSTAR          = -.47945E-1
MEAN_MOTION_DOT = -.1892736E-1
MEAN_MOTION_DDOT = 0

CCSDS_OMM_VERS = 2.0
CREATION_DATE  = 
ORIGINATOR     = 

OBJECT_NAME    = STARLINK-36592
OBJECT_ID      = 2026-039X
CENTER_NAME    = EARTH
REF_FRAME      = TEME
TIME_SYSTEM    = UTC
MEAN_ELEMENT_THEORY = SGP/SGP4

EPOCH          = 2026-03-26T20:00:03.000384
MEAN_MOTION    = 15.36499830
ECCENTRICITY   = .000151
INCLINATION    = 42.9988
RA_OF_ASC_NODE = 312.2975
ARG_OF_PERICENTER = 250.9817
MEAN_ANOMALY   = 90.4443

EPHEMERIS_TYPE = 0
CLASSIFICATION_TYPE = U
NORAD_CAT_ID   = 68007
ELEMENT_SET_NO = 999
REV_AT_EPOCH   = 563
BSTAR          = -.57585E-1
MEAN_MOTION_DOT = -.1878622E-1
MEAN_MOTION_DDOT = 0

CCSDS_OMM_VERS = 2.0
CREATION_DATE  = 
ORIGINATOR     = 

OBJECT_NAME    = STARLINK-36911
OBJECT_ID      = 2026-039Y
CENTER_NAME    = EARTH
REF_FRAME      = TEME
TIME_SYSTEM    = UTC
MEAN_ELEMENT_THEORY = SGP/SGP4

EPOCH          = 2026-03-26T20:00:03.000384
MEAN_MOTION    = 15.40390932
ECCENTRICITY   = .0001583
INCLINATION    = 42.9998
RA_OF_ASC_NODE = 312.2883
ARG_OF_PERICENTER = 250.7192
MEAN_ANOMALY   = 94.7781

EPHEMERIS_TYPE = 0
CLASSIFICATION_TYPE = U
NORAD_CAT_ID   = 68008
ELEMENT_SET_NO = 999
REV_AT_EPOCH   = 563
BSTAR          = -.52406E-1
MEAN_MOTION_DOT = -.1936998E-1
MEAN_MOTION_DDOT = 0

