STARLINK-36994          
1 67997U 26039M   26085.32954543  .00068330  00000+0  11585-2 0  9995
2 67997  42.9961 315.3582 0003650 272.5106  87.5336 15.50620562  4249
STARLINK-36988          
1 67998U 26039N   26085.32530105  .00059010  00000+0  10032-2 0  9991
2 67998  42.9963 315.3253 0001835 283.8729  76.1926 15.50604528  4249
STARLINK-36926          
1 67999U 26039P   26085.64995786  .00065817  00000+0  11167-2 0  9999
2 67999  42.9996 313.4621 0001606 266.3478  93.7199 15.50619662  4294
STARLINK-36931          
1 68000U 26039Q   26085.83336806 -.01931945  00000+0 -40850-1 0  9993
2 68000  43.0002 312.1204 0001778 267.1202 148.0910 15.47572768  5630
STARLINK-36903          
1 68001U 26039R   26085.83336806 -.01854239  00000+0 -60029-1 0  9994
2 68001  42.9997 312.6402 0001007 278.1142 285.0622 15.34770632  5635
STARLINK-36898          
1 68002U 26039S   26085.83336806 -.01853509  00000+0 -62945-1 0  9993
2 68002  42.9988 312.4657 0001109 252.1763  20.8241 15.33276017  5639
STARLINK-36862          
1 68003U 26039T   26085.83336806 -.01737379  00000+0 -61346-1 0  9994
2 68003  42.9992 312.6400 0001204 275.0680 287.0814 15.31822535  5634
STARLINK-36888          
1 68004U 26039U   26085.83336806 -.01853471  00000+0 -64014-1 0  9992
2 68004  42.9997 312.6600 0001045 278.9187 275.3378 15.32746456  5632
STARLINK-36910          
1 68005U 26039V   26085.83336806 -.01858770  00000+0 -64372-1 0  9997
2 68005  42.9993 312.3985 0001242 250.2329  49.7027 15.32669478  5634
STARLINK-36889          
1 68006U 26039W   26085.83336806 -.01892736  00000+0 -47945-1 0  9995
2 68006  42.9998 312.4669 0001164 250.1496  24.0680 15.42272454  5633
STARLINK-36592          
1 68007U 26039X   26085.83336806 -.01878622  00000+0 -57585-1 0  9995
2 68007  42.9988 312.2975 0001510 250.9817  90.4443 15.36499830  5637
STARLINK-36911          
1 68008U 26039Y   26085.83336806 -.01936998  00000+0 -52406-1 0  9994
2 68008  42.9998 312.2883 0001583 250.7192  94.7781 15.40390932  5631
